<?xml version="1.0" encoding="UTF-8"?>
<ndm xmlns:xsi="http://www.w3.org/2001/XMLSchema-instance" xsi:noNamespaceSchemaLocation="https://sanaregistry.org/r/ndmxml_unqualified/ndmxml-2.0.0-master-2.0.xsd">
<omm id="CCSDS_OMM_VERS" version="2.0">
<header><CREATION_DATE/><ORIGINATOR/></header><body><segment><metadata><OBJECT_NAME>ONEWEB-0136</OBJECT_NAME><OBJECT_ID>2020-100AA</OBJECT_ID><CENTER_NAME>EARTH</CENTER_NAME><REF_FRAME>TEME</REF_FRAME><TIME_SYSTEM>UTC</TIME_SYSTEM><MEAN_ELEMENT_THEORY>SGP4</MEAN_ELEMENT_THEORY></metadata><data><meanElements><EPOCH>2025-06-02T03:34:57.695232</EPOCH><MEAN_MOTION>13.12443682</MEAN_MOTION><ECCENTRICITY>.0002172</ECCENTRICITY><INCLINATION>87.8890</INCLINATION><RA_OF_ASC_NODE>66.2347</RA_OF_ASC_NODE><ARG_OF_PERICENTER>91.1251</ARG_OF_PERICENTER><MEAN_ANOMALY>269.0126</MEAN_ANOMALY></meanElements><tleParameters><EPHEMERIS_TYPE>0</EPHEMERIS_TYPE><CLASSIFICATION_TYPE>U</CLASSIFICATION_TYPE><NORAD_CAT_ID>47282</NORAD_CAT_ID><ELEMENT_SET_NO>999</ELEMENT_SET_NO><REV_AT_EPOCH>21481</REV_AT_EPOCH><BSTAR>.35964E-3</BSTAR><MEAN_MOTION_DOT>.142E-5</MEAN_MOTION_DOT><MEAN_MOTION_DDOT>0</MEAN_MOTION_DDOT></tleParameters></data></segment></body></omm>
<omm id="CCSDS_OMM_VERS" version="2.0">
<header><CREATION_DATE/><ORIGINATOR/></header><body><segment><metadata><OBJECT_NAME>ONEWEB-0137</OBJECT_NAME><OBJECT_ID>2020-100AB</OBJECT_ID><CENTER_NAME>EARTH</CENTER_NAME><REF_FRAME>TEME</REF_FRAME><TIME_SYSTEM>UTC</TIME_SYSTEM><MEAN_ELEMENT_THEORY>SGP4</MEAN_ELEMENT_THEORY></metadata><data><meanElements><EPOCH>2025-06-02T11:43:07.185504</EPOCH><MEAN_MOTION>13.12443602</MEAN_MOTION><ECCENTRICITY>.0002112</ECCENTRICITY><INCLINATION>87.8884</INCLINATION><RA_OF_ASC_NODE>66.1755</RA_OF_ASC_NODE><ARG_OF_PERICENTER>75.4855</ARG_OF_PERICENTER><MEAN_ANOMALY>284.6508</MEAN_ANOMALY></meanElements><tleParameters><EPHEMERIS_TYPE>0</EPHEMERIS_TYPE><CLASSIFICATION_TYPE>U</CLASSIFICATION_TYPE><NORAD_CAT_ID>47283</NORAD_CAT_ID><ELEMENT_SET_NO>999</ELEMENT_SET_NO><REV_AT_EPOCH>21476</REV_AT_EPOCH><BSTAR>-.11187E-2</BSTAR><MEAN_MOTION_DOT>-.39E-5</MEAN_MOTION_DOT><MEAN_MOTION_DDOT>0</MEAN_MOTION_DDOT></tleParameters></data></segment></body></omm>
<omm id="CCSDS_OMM_VERS" version="2.0">
<header><CREATION_DATE/><ORIGINATOR/></header><body><segment><metadata><OBJECT_NAME>ONEWEB-0138</OBJECT_NAME><OBJECT_ID>2020-100AC</OBJECT_ID><CENTER_NAME>EARTH</CENTER_NAME><REF_FRAME>TEME</REF_FRAME><TIME_SYSTEM>UTC</TIME_SYSTEM><MEAN_ELEMENT_THEORY>SGP4</MEAN_ELEMENT_THEORY></metadata><data><meanElements><EPOCH>2025-06-01T18:44:44.333952</EPOCH><MEAN_MOTION>13.12443908</MEAN_MOTION><ECCENTRICITY>.0002035</ECCENTRICITY><INCLINATION>87.8885</INCLINATION><RA_OF_ASC_NODE>66.3280</RA_OF_ASC_NODE><ARG_OF_PERICENTER>81.9176</ARG_OF_PERICENTER><MEAN_ANOMALY>278.2183</MEAN_ANOMALY></meanElements><tleParameters><EPHEMERIS_TYPE>0</EPHEMERIS_TYPE><CLASSIFICATION_TYPE>U</CLASSIFICATION_TYPE><NORAD_CAT_ID>47284</NORAD_CAT_ID><ELEMENT_SET_NO>999</ELEMENT_SET_NO><REV_AT_EPOCH>21475</REV_AT_EPOCH><BSTAR>-.88699E-3</BSTAR><MEAN_MOTION_DOT>-.306E-5</MEAN_MOTION_DOT><MEAN_MOTION_DDOT>0</MEAN_MOTION_DDOT></tleParameters></data></segment></body></omm>
<omm id="CCSDS_OMM_VERS" version="2.0">
<header><CREATION_DATE/><ORIGINATOR/></header><body><segment><metadata><OBJECT_NAME>ONEWEB-0139</OBJECT_NAME><OBJECT_ID>2020-100AD</OBJECT_ID><CENTER_NAME>EARTH</CENTER_NAME><REF_FRAME>TEME</REF_FRAME><TIME_SYSTEM>UTC</TIME_SYSTEM><MEAN_ELEMENT_THEORY>SGP4</MEAN_ELEMENT_THEORY></metadata><data><meanElements><EPOCH>2025-06-01T19:41:01.212288</EPOCH><MEAN_MOTION>13.12444192</MEAN_MOTION><ECCENTRICITY>.0001954</ECCENTRICITY><INCLINATION>87.8892</INCLINATION><RA_OF_ASC_NODE>66.3103</RA_OF_ASC_NODE><ARG_OF_PERICENTER>78.8736</ARG_OF_PERICENTER><MEAN_ANOMALY>281.2612</MEAN_ANOMALY></meanElements><tleParameters><EPHEMERIS_TYPE>0</EPHEMERIS_TYPE><CLASSIFICATION_TYPE>U</CLASSIFICATION_TYPE><NORAD_CAT_ID>47285</NORAD_CAT_ID><ELEMENT_SET_NO>999</ELEMENT_SET_NO><REV_AT_EPOCH>21483</REV_AT_EPOCH><BSTAR>.11758E-2</BSTAR><MEAN_MOTION_DOT>.436E-5</MEAN_MOTION_DOT><MEAN_MOTION_DDOT>0</MEAN_MOTION_DDOT></tleParameters></data></segment></body></omm>
<omm id="CCSDS_OMM_VERS" version="2.0">
<header><CREATION_DATE/><ORIGINATOR/></header><body><segment><metadata><OBJECT_NAME>ONEWEB-0140</OBJECT_NAME><OBJECT_ID>2020-100AE</OBJECT_ID><CENTER_NAME>EARTH</CENTER_NAME><REF_FRAME>TEME</REF_FRAME><TIME_SYSTEM>UTC</TIME_SYSTEM><MEAN_ELEMENT_THEORY>SGP4</MEAN_ELEMENT_THEORY></metadata><data><meanElements><EPOCH>2025-06-01T18:35:23.251488</EPOCH><MEAN_MOTION>13.12440932</MEAN_MOTION><ECCENTRICITY>.0001978</ECCENTRICITY><INCLINATION>87.8887</INCLINATION><RA_OF_ASC_NODE>66.3062</RA_OF_ASC_NODE><ARG_OF_PERICENTER>82.4109</ARG_OF_PERICENTER><MEAN_ANOMALY>277.7244</MEAN_ANOMALY></meanElements><tleParameters><EPHEMERIS_TYPE>0</EPHEMERIS_TYPE><CLASSIFICATION_TYPE>U</CLASSIFICATION_TYPE><NORAD_CAT_ID>47286</NORAD_CAT_ID><ELEMENT_SET_NO>999</ELEMENT_SET_NO><REV_AT_EPOCH>21479</REV_AT_EPOCH><BSTAR>-.59935E-3</BSTAR><MEAN_MOTION_DOT>-.203E-5</MEAN_MOTION_DOT><MEAN_MOTION_DDOT>0</MEAN_MOTION_DDOT></tleParameters></data></segment></body></omm>
<omm id="CCSDS_OMM_VERS" version="2.0">
<header><CREATION_DATE/><ORIGINATOR/></header><body><segment><metadata><OBJECT_NAME>ONEWEB-0141</OBJECT_NAME><OBJECT_ID>2020-100AF</OBJECT_ID><CENTER_NAME>EARTH</CENTER_NAME><REF_FRAME>TEME</REF_FRAME><TIME_SYSTEM>UTC</TIME_SYSTEM><MEAN_ELEMENT_THEORY>SGP4</MEAN_ELEMENT_THEORY></metadata><data><meanElements><EPOCH>2025-06-01T19:40:35.307840</EPOCH><MEAN_MOTION>13.12446154</MEAN_MOTION><ECCENTRICITY>.0002272</ECCENTRICITY><INCLINATION>87.8887</INCLINATION><RA_OF_ASC_NODE>66.3143</RA_OF_ASC_NODE><ARG_OF_PERICENTER>72.6273</ARG_OF_PERICENTER><MEAN_ANOMALY>287.5104</MEAN_ANOMALY></meanElements><tleParameters><EPHEMERIS_TYPE>0</EPHEMERIS_TYPE><CLASSIFICATION_TYPE>U</CLASSIFICATION_TYPE><NORAD_CAT_ID>47287</NORAD_CAT_ID><ELEMENT_SET_NO>999</ELEMENT_SET_NO><REV_AT_EPOCH>21478</REV_AT_EPOCH><BSTAR>.1154E-2</BSTAR><MEAN_MOTION_DOT>.428E-5</MEAN_MOTION_DOT><MEAN_MOTION_DDOT>0</MEAN_MOTION_DDOT></tleParameters></data></segment></body></omm>
<omm id="CCSDS_OMM_VERS" version="2.0">
<header><CREATION_DATE/><ORIGINATOR/></header><body><segment><metadata><OBJECT_NAME>ONEWEB-0142</OBJECT_NAME><OBJECT_ID>2020-100AG</OBJECT_ID><CENTER_NAME>EARTH</CENTER_NAME><REF_FRAME>TEME</REF_FRAME><TIME_SYSTEM>UTC</TIME_SYSTEM><MEAN_ELEMENT_THEORY>SGP4</MEAN_ELEMENT_THEORY></metadata><data><meanElements><EPOCH>2025-06-01T19:24:39.386880</EPOCH><MEAN_MOTION>13.12443405</MEAN_MOTION><ECCENTRICITY>.0002244</ECCENTRICITY><INCLINATION>87.8906</INCLINATION><RA_OF_ASC_NODE>66.3155</RA_OF_ASC_NODE><ARG_OF_PERICENTER>78.3493</ARG_OF_PERICENTER><MEAN_ANOMALY>281.7887</MEAN_ANOMALY></meanElements><tleParameters><EPHEMERIS_TYPE>0</EPHEMERIS_TYPE><CLASSIFICATION_TYPE>U</CLASSIFICATION_TYPE><NORAD_CAT_ID>47288</NORAD_CAT_ID><ELEMENT_SET_NO>999</ELEMENT_SET_NO><REV_AT_EPOCH>21477</REV_AT_EPOCH><BSTAR>.27187E-3</BSTAR><MEAN_MOTION_DOT>.111E-5</MEAN_MOTION_DOT><MEAN_MOTION_DDOT>0</MEAN_MOTION_DDOT></tleParameters></data></segment></body></omm>
<omm id="CCSDS_OMM_VERS" version="2.0">
<header><CREATION_DATE/><ORIGINATOR/></header><body><segment><metadata><OBJECT_NAME>ONEWEB-0143</OBJECT_NAME><OBJECT_ID>2020-100AH</OBJECT_ID><CENTER_NAME>EARTH</CENTER_NAME><REF_FRAME>TEME</REF_FRAME><TIME_SYSTEM>UTC</TIME_SYSTEM><MEAN_ELEMENT_THEORY>SGP4</MEAN_ELEMENT_THEORY></metadata><data><meanElements><EPOCH>2025-06-01T19:38:27.498048</EPOCH><MEAN_MOTION>13.12445155</MEAN_MOTION><ECCENTRICITY>.000194</ECCENTRICITY><INCLINATION>87.8889</INCLINATION><RA_OF_ASC_NODE>66.3196</RA_OF_ASC_NODE><ARG_OF_PERICENTER>78.3336</ARG_OF_PERICENTER><MEAN_ANOMALY>281.8010</MEAN_ANOMALY></meanElements><tleParameters><EPHEMERIS_TYPE>0</EPHEMERIS_TYPE><CLASSIFICATION_TYPE>U</CLASSIFICATION_TYPE><NORAD_CAT_ID>47289</NORAD_CAT_ID><ELEMENT_SET_NO>999</ELEMENT_SET_NO><REV_AT_EPOCH>21475</REV_AT_EPOCH><BSTAR>.10171E-2</BSTAR><MEAN_MOTION_DOT>.379E-5</MEAN_MOTION_DOT><MEAN_MOTION_DDOT>0</MEAN_MOTION_DDOT></tleParameters></data></segment></body></omm>

</ndm>
