47282,ONEWEB-0136,2020,109.72,148.0,+,87.89,Active,1,LEO,Russia,UK,Commercial,Communications,Soyuz,1 47282U 20100AA  25153.14927888  .00000142  00000+0  35964-3 0  9995,2 47282  87.8890  66.2347 0002172  91.1251 269.0126 13.12443682214810,13.12443682,0.0002172,LEO
47283,ONEWEB-0137,2020,109.72,148.0,+,87.89,Active,1,LEO,Russia,UK,Commercial,Communications,Soyuz,1 47283U 20100AB  25153.48827761 -.00000390  00000+0 -11187-2 0  9999,2 47283  87.8884  66.1755 0002112  75.4855 284.6508 13.12443602214768,13.12443602,0.0002112,LEO
47284,ONEWEB-0138,2020,109.72,148.0,+,87.89,Active,1,LEO,Russia,UK,Commercial,Communications,Soyuz,1 47284U 20100AC  25152.78106868 -.00000306  00000+0 -88699-3 0  9990,2 47284  87.8885  66.3280 0002035  81.9176 278.2183 13.12443908214753,13.12443908,0.0002035,LEO
47285,ONEWEB-0139,2020,109.72,148.0,+,87.89,Active,1,LEO,Russia,UK,Commercial,Communications,Soyuz,1 47285U 20100AD  25152.82015292  .00000436  00000+0  11758-2 0  9999,2 47285  87.8892  66.3103 0001954  78.8736 281.2612 13.12444192214838,13.12444192,0.0001954,LEO
47286,ONEWEB-0140,2020,109.72,148.0,+,87.89,Active,1,LEO,Russia,UK,Commercial,Communications,Soyuz,1 47286U 20100AE  25152.77457467 -.00000203  00000+0 -59935-3 0  9992,2 47286  87.8887  66.3062 0001978  82.4109 277.7244 13.12440932214792,13.12440932,0.0001978,LEO
47287,ONEWEB-0141,2020,109.72,148.0,+,87.89,Active,1,LEO,Russia,UK,Commercial,Communications,Soyuz,1 47287U 20100AF  25152.81985310  .00000428  00000+0  11540-2 0  9997,2 47287  87.8887  66.3143 0002272  72.6273 287.5104 13.12446154214789,13.12446154,0.0002272,LEO
47288,ONEWEB-0142,2020,109.72,148.0,+,87.89,Active,1,LEO,Russia,UK,Commercial,Communications,Soyuz,1 47288U 20100AG  25152.80878920  .00000111  00000+0  27187-3 0  9999,2 47288  87.8906  66.3155 0002244  78.3493 281.7887 13.12443405214770,13.12443405,0.0002244,LEO
47289,ONEWEB-0143,2020,109.72,148.0,+,87.89,Active,1,LEO,Russia,UK,Commercial,Communications,Soyuz,1 47289U 20100AH  25152.81837382  .00000379  00000+0  10171-2 0  9998,2 47289  87.8889  66.3196 0001940  78.3336 281.8010 13.12445155214755,13.12445155,0.000194,LEO
